{"type": "FeatureCollection", "features": [ {"type": "Feature", "properties": {"norad_id": 66661, "name": "SNUGLITE-III", "group": "last-30-days", "lat": -54.529344798008594, "lon": 88.93189855993742, "alt_km": 586.9121936465272, "timestamp": "2025-12-18T19:29:51.286832+00:00", "meta": {"OBJECT_NAME": "SNUGLITE-III", "OBJECT_ID": "2025-274M", "EPOCH": "2025-12-18T05:34:46.265088", "MEAN_MOTION": 14.93127861, "ECCENTRICITY": 0.00131314, "INCLINATION": 97.7402, "RA_OF_ASC_NODE": 279.366, "ARG_OF_PERICENTER": 261.8079, "MEAN_ANOMALY": 98.1651, "EPHEMERIS_TYPE": 0, "CLASSIFICATION_TYPE": "U", "NORAD_CAT_ID": 66661, "ELEMENT_SET_NO": 999, "REV_AT_EPOCH": 322, "BSTAR": 0.00021362331, "MEAN_MOTION_DOT": 2.174e-05, "MEAN_MOTION_DDOT": 0}, "tle": {"line1": "1 66661U 25274M   25352.23247992  .00002174  00000+0  21362-3 0  9990", "line2": "2 66661  97.7402 279.3660 0013131 261.8079  98.1651 14.93127861  3220"}}, "geometry": {"type": "Point", "coordinates": [88.93189855993742, -54.529344798008594]}}, {"type": "Feature", "properties": {"norad_id": 66662, "name": "2025-274N", "group": "last-30-days", "lat": -58.930636641986766, "lon": 86.89198358541339, "alt_km": 586.262672892889, "timestamp": "2025-12-18T19:29:51.286842+00:00", "meta": {"OBJECT_NAME": "2025-274N", "OBJECT_ID": "2025-274N", "EPOCH": "2025-12-18T05:33:35.016192", "MEAN_MOTION": 14.9318239, "ECCENTRICITY": 0.00135539, "INCLINATION": 97.7403, "RA_OF_ASC_NODE": 279.3673, "ARG_OF_PERICENTER": 261.4456, "MEAN_ANOMALY": 98.5228, "EPHEMERIS_TYPE": 0, "CLASSIFICATION_TYPE": "U", "NORAD_CAT_ID": 66662, "ELEMENT_SET_NO": 999, "REV_AT_EPOCH": 322, "BSTAR": 0.00022839863, "MEAN_MOTION_DOT": 2.332e-05, "MEAN_MOTION_DDOT": 0}, "tle": {"line1": "1 66662U 25274N   25352.23165528  .00002332  00000+0  22840-3 0  9993", "line2": "2 66662  97.7403 279.3673 0013553 261.4456  98.5228 14.93182390  3221"}}, "geometry": {"type": "Point", "coordinates": [86.89198358541339, -58.930636641986766]}}, {"type": "Feature", "properties": {"norad_id": 66663, "name": "KSLV-II R/B", "group": "last-30-days", "lat": -32.8197514522881, "lon": 95.06254369045571, "alt_km": 577.6496523125525, "timestamp": "2025-12-18T19:29:51.286854+00:00", "meta": {"OBJECT_NAME": "KSLV-II R/B", "OBJECT_ID": "2025-274P", "EPOCH": "2025-12-18T05:42:48.617280", "MEAN_MOTION": 14.97400817, "ECCENTRICITY": 0.00561856, "INCLINATION": 97.7432, "RA_OF_ASC_NODE": 279.5279, "ARG_OF_PERICENTER": 300.251, "MEAN_ANOMALY": 59.3157, "EPHEMERIS_TYPE": 0, "CLASSIFICATION_TYPE": "U", "NORAD_CAT_ID": 66663, "ELEMENT_SET_NO": 999, "REV_AT_EPOCH": 323, "BSTAR": 0.00052803201, "MEAN_MOTION_DOT": 6.279e-05, "MEAN_MOTION_DDOT": 0}, "tle": {"line1": "1 66663U 25274P   25352.23806270  .00006279  00000+0  52803-3 0  9996", "line2": "2 66663  97.7432 279.5279 0056185 300.2510  59.3157 14.97400817  3237"}}, "geometry": {"type": "Point", "coordinates": [95.06254369045571, -32.8197514522881]}}, {"type": "Feature", "properties": {"norad_id": 66664, "name": "SOYUZ-MS 28", "group": "last-30-days", "lat": 51.575647685971624, "lon": -160.49332754235877, "alt_km": 412.7744709607032, "timestamp": "2025-12-18T19:29:51.286864+00:00", "meta": {"OBJECT_NAME": "SOYUZ-MS 28", "OBJECT_ID": "2025-275A", "EPOCH": "2025-12-18T05:11:21.338880", "MEAN_MOTION": 15.49648163, "ECCENTRICITY": 0.00031704, "INCLINATION": 51.6313, "RA_OF_ASC_NODE": 115.3593, "ARG_OF_PERICENTER": 265.6107, "MEAN_ANOMALY": 94.4519, "EPHEMERIS_TYPE": 0, "CLASSIFICATION_TYPE": "U", "NORAD_CAT_ID": 66664, "ELEMENT_SET_NO": 999, "REV_AT_EPOCH": 128, "BSTAR": 0.00015154287, "MEAN_MOTION_DOT": 8.098e-05, "MEAN_MOTION_DDOT": 0}, "tle": {"line1": "1 66664U 25275A   25352.21621920  .00008098  00000+0  15154-3 0  9992", "line2": "2 66664  51.6313 115.3593 0003170 265.6107  94.4519 15.49648163  1284"}}, "geometry": {"type": "Point", "coordinates": [-160.49332754235877, 51.575647685971624]}}, {"type": "Feature", "properties": {"norad_id": 66791, "name": "STARLINK-35867", "group": "last-30-days", "lat": 16.563905857244176, "lon": -126.29836719827561, "alt_km": 357.7451602355568, "timestamp": "2025-12-18T19:29:51.286876+00:00", "meta": {"OBJECT_NAME": "STARLINK-35867", "OBJECT_ID": "2025-278A", "EPOCH": "2025-12-18T06:00:02.999808", "MEAN_MOTION": 15.72018213, "ECCENTRICITY": 0.00014648, "INCLINATION": 42.9992, "RA_OF_ASC_NODE": 218.4787, "ARG_OF_PERICENTER": 274.4871, "MEAN_ANOMALY": 166.2647, "EPHEMERIS_TYPE": 0, "CLASSIFICATION_TYPE": "U", "NORAD_CAT_ID": 66791, "ELEMENT_SET_NO": 999, "REV_AT_EPOCH": 384, "BSTAR": -0.016346444, "MEAN_MOTION_DOT": -0.01951744, "MEAN_MOTION_DDOT": 0}, "tle": {"line1": "1 66791U 25278A   25352.25003472 -.01951744  00000+0 -16346-1 0  9996", "line2": "2 66791  42.9992 218.4787 0001464 274.4871 166.2647 15.72018213  3848"}}, "geometry": {"type": "Point", "coordinates": [-126.29836719827561, 16.563905857244176]}}, {"type": "Feature", "properties": {"norad_id": 66792, "name": "STARLINK-35990", "group": "last-30-days", "lat": 17.798537332534416, "lon": -124.76382018330825, "alt_km": 357.5332079645332, "timestamp": "2025-12-18T19:29:51.286887+00:00", "meta": {"OBJECT_NAME": "STARLINK-35990", "OBJECT_ID": "2025-278B", "EPOCH": "2025-12-18T06:00:02.999808", "MEAN_MOTION": 15.72024402, "ECCENTRICITY": 0.00016109, "INCLINATION": 42.9994, "RA_OF_ASC_NODE": 218.4744, "ARG_OF_PERICENTER": 277.595, "MEAN_ANOMALY": 165.0667, "EPHEMERIS_TYPE": 0, "CLASSIFICATION_TYPE": "U", "NORAD_CAT_ID": 66792, "ELEMENT_SET_NO": 999, "REV_AT_EPOCH": 384, "BSTAR": -0.016382514, "MEAN_MOTION_DOT": -0.0195613, "MEAN_MOTION_DDOT": 0}, "tle": {"line1": "1 66792U 25278B   25352.25003472 -.01956130  00000+0 -16383-1 0  9992", "line2": "2 66792  42.9994 218.4744 0001610 277.5950 165.0667 15.72024402  3845"}}, "geometry": {"type": "Point", "coordinates": [-124.76382018330825, 17.798537332534416]}}, {"type": "Feature", "properties": {"norad_id": 66793, "name": "STARLINK-36051", "group": "last-30-days", "lat": 20.227640006096202, "lon": -121.63291804705659, "alt_km": 357.3732157811437, "timestamp": "2025-12-18T19:29:51.286896+00:00", "meta": {"OBJECT_NAME": "STARLINK-36051", "OBJECT_ID": "2025-278C", "EPOCH": "2025-12-18T06:00:02.999808", "MEAN_MOTION": 15.72019657, "ECCENTRICITY": 0.00017423, "INCLINATION": 42.9991, "RA_OF_ASC_NODE": 218.4647, "ARG_OF_PERICENTER": 274.0622, "MEAN_ANOMALY": 172.4371, "EPHEMERIS_TYPE": 0, "CLASSIFICATION_TYPE": "U", "NORAD_CAT_ID": 66793, "ELEMENT_SET_NO": 999, "REV_AT_EPOCH": 374, "BSTAR": -0.016353821, "MEAN_MOTION_DOT": -0.01952856, "MEAN_MOTION_DDOT": 0}, "tle": {"line1": "1 66793U 25278C   25352.25003472 -.01952856  00000+0 -16354-1 0  9992", "line2": "2 66793  42.9991 218.4647 0001742 274.0622 172.4371 15.72019657  3748"}}, "geometry": {"type": "Point", "coordinates": [-121.63291804705659, 20.227640006096202]}}, {"type": "Feature", "properties": {"norad_id": 66794, "name": "STARLINK-36062", "group": "last-30-days", "lat": 19.019545828583823, "lon": -123.210929215346, "alt_km": 357.37518741141685, "timestamp": "2025-12-18T19:29:51.286908+00:00", "meta": {"OBJECT_NAME": "STARLINK-36062", "OBJECT_ID": "2025-278D", "EPOCH": "2025-12-18T06:00:02.999808", "MEAN_MOTION": 15.72018056, "ECCENTRICITY": 0.00014745, "INCLINATION": 42.9994, "RA_OF_ASC_NODE": 218.4688, "ARG_OF_PERICENTER": 276.8674, "MEAN_ANOMALY": 167.7177, "EPHEMERIS_TYPE": 0, "CLASSIFICATION_TYPE": "U", "NORAD_CAT_ID": 66794, "ELEMENT_SET_NO": 999, "REV_AT_EPOCH": 384, "BSTAR": -0.016335199, "MEAN_MOTION_DOT": -0.01950552, "MEAN_MOTION_DDOT": 0}, "tle": {"line1": "1 66794U 25278D   25352.25003472 -.01950552  00000+0 -16335-1 0  9993", "line2": "2 66794  42.9994 218.4688 0001474 276.8674 167.7177 15.72018056  3840"}}, "geometry": {"type": "Point", "coordinates": [-123.210929215346, 19.019545828583823]}}, {"type": "Feature", "properties": {"norad_id": 66795, "name": "STARLINK-36047", "group": "last-30-days", "lat": 21.42149366923853, "lon": -120.0304194873429, "alt_km": 357.1601107083152, "timestamp": "2025-12-18T19:29:51.286918+00:00", "meta": {"OBJECT_NAME": "STARLINK-36047", "OBJECT_ID": "2025-278E", "EPOCH": "2025-12-18T06:00:02.999808", "MEAN_MOTION": 15.72020402, "ECCENTRICITY": 0.00016904, "INCLINATION": 42.999, "RA_OF_ASC_NODE": 218.4604, "ARG_OF_PERICENTER": 275.7832, "MEAN_ANOMALY": 172.6312, "EPHEMERIS_TYPE": 0, "CLASSIFICATION_TYPE": "U", "NORAD_CAT_ID": 66795, "ELEMENT_SET_NO": 999, "REV_AT_EPOCH": 374, "BSTAR": -0.016347985, "MEAN_MOTION_DOT": -0.01952252, "MEAN_MOTION_DDOT": 0}, "tle": {"line1": "1 66795U 25278E   25352.25003472 -.01952252  00000+0 -16348-1 0  9997", "line2": "2 66795  42.9990 218.4604 0001690 275.7832 172.6312 15.72020402  3742"}}, "geometry": {"type": "Point", "coordinates": [-120.0304194873429, 21.42149366923853]}}, {"type": "Feature", "properties": {"norad_id": 66796, "name": "STARLINK-35964", "group": "last-30-days", "lat": -10.892047245318972, "lon": 45.66063774363922, "alt_km": 328.8966931944651, "timestamp": "2025-12-18T19:29:51.286929+00:00", "meta": {"OBJECT_NAME": "STARLINK-35964", "OBJECT_ID": "2025-278F", "EPOCH": "2025-12-18T06:00:02.999808", "MEAN_MOTION": 15.80906423, "ECCENTRICITY": 0.00019291, "INCLINATION": 42.9928, "RA_OF_ASC_NODE": 217.1827, "ARG_OF_PERICENTER": 269.9486, "MEAN_ANOMALY": 321.6613, "EPHEMERIS_TYPE": 0, "CLASSIFICATION_TYPE": "U", "NORAD_CAT_ID": 66796, "ELEMENT_SET_NO": 999, "REV_AT_EPOCH": 368, "BSTAR": -0.0003568901, "MEAN_MOTION_DOT": -0.00071308, "MEAN_MOTION_DDOT": 0}, "tle": {"line1": "1 66796U 25278F   25352.25003472 -.00071308  00000+0 -35689-3 0  9992", "line2": "2 66796  42.9928 217.1827 0001929 269.9486 321.6613 15.80906423  3680"}}, "geometry": {"type": "Point", "coordinates": [45.66063774363922, -10.892047245318972]}}]}